satname,norad_id,inclination_deg,eccentricity,mean_motion_rev_per_day,perigee_km,apogee_km,l1,l2
STARLINK-1470,45772,53.0518,0.0007417,15.21245372,496.97998270950666,507.18610111968246,1 45772U 20038AU  25356.19242765  .00013315  00000+0  60176-3 0  9990,2 45772  53.0518 172.1865 0007417 108.0977 252.0827 15.21245372305253
STARLINK-1482,45773,53.0521,0.0001392,15.06399777,546.2482327868411,548.1762500156465,1 45773U 20038AV  25356.82270311  .00000610  00000+0  59861-4 0  9993,2 45773  53.0521 181.6844 0001392  90.5779 269.5369 15.06399777305178
STARLINK-1496,45780,53.0537,0.0001624,15.20087734,504.45781728413294,506.6936471795625,1 45780U 20038BC  25356.91670139  .01335783  00000+0  56299-1 0  9995,2 45780  53.0537 180.9403 0001624  86.0133  52.0357 15.20087734  5686
STARLINK-1497,45781,53.0321,0.0001633,15.71491997,353.53271524289266,355.731637655922,1 45781U 20038BD  25356.91670139  .00217868  00000+0  16303-2 0  9991,2 45781  53.0321 105.6876 0001633  16.4542 115.2856 15.71491997  5836
STARLINK-1510,45784,53.0213,0.0007023,15.99809143,270.2753286501502,279.6202515463219,1 45784U 20038BG  25356.91670139  .00495112  11720-3  95655-3 0  9997,2 45784  53.0213  73.9428 0007023 346.3010 283.1605 15.99809143  6051
STARLINK-1513,45786,53.0536,0.0001242,15.06423281,546.2800865163154,548.0003253742716,1 45786U 20038BJ  25356.81899095  .00003110  00000+0  22744-3 0  9999,2 45786  53.0536 181.7036 0001242  89.5142 270.5989 15.06423281305176
STARLINK-1522,46027,53.0557,0.0001155,15.06459674,546.2288151251305,547.8285283953073,1 46027U 20055A   25356.60060946 -.00014236  00000+0 -93719-3 0  9992,2 46027  53.0557 112.6824 0001155 142.0855 218.0215 15.06459674297269
STARLINK-1523,46028,53.0562,8.89e-05,15.06396762,546.6058175906519,547.8371463287431,1 46028U 20055B   25356.54902033 -.00000222  00000+0  39621-5 0  9991,2 46028  53.0562 112.9187 0000889  85.8835 274.2255 15.06396762297273
STARLINK-1526,46029,53.0557,0.0001226,15.06401507,546.3578920372292,548.0559863711233,1 46029U 20055C   25356.47530087  .00000824  00000+0  74187-4 0  9992,2 46029  53.0557 113.2442 0001226  90.0466 270.0664 15.06401507297250
STARLINK-1555,46032,53.0555,0.0001343,15.06402824,546.2728296495834,548.1329759474747,1 46032U 20055F   25356.59325770  .00002763  00000+0  20431-3 0  9996,2 46032  53.0555 112.7164 0001343  85.6760 274.4383 15.06402824297275
STARLINK-1556,46033,53.0554,0.0001172,15.0638813,546.436282902835,548.0595931323069,1 46033U 20055G   25356.04405705  .00002155  00000+0  16354-3 0  9998,2 46033  53.0554 115.1824 0001172  86.8191 273.2932 15.06388130297164
STARLINK-1557,46034,53.055,0.0001256,15.06394314,546.3591587964729,548.0988107318453,1 46034U 20055H   25356.51216650  .00001552  00000+0  12307-3 0  9994,2 46034  53.0550 113.0802 0001256  92.9487 267.1646 15.06394314297236
STARLINK-1558,46035,53.0553,0.0001198,15.06400864,546.3792534639751,548.0385663439874,1 46035U 20055J   25356.58588039  .00000754  00000+0  69497-4 0  9991,2 46035  53.0553 112.7527 0001198  86.0013 274.1113 15.06400864297273
STARLINK-1560,46036,53.0581,0.0001724,15.06392565,546.0404112162469,548.4282792560853,1 46036U 20055K   25356.57113669  .00000151  00000+0  29072-4 0  9990,2 46036  53.0581 112.8209 0001724  88.4275 271.6912 15.06392565297271
STARLINK-1567,46038,53.0559,0.0001452,15.06400391,546.20479914324,548.2159200164615,1 46038U 20055M   25356.58219460  .00001805  00000+0  14004-3 0  9994,2 46038  53.0559 112.7636 0001452  81.9162 278.1992 15.06400391297268
STARLINK-1569,46039,53.0546,0.000137,15.06388877,546.2968711181875,548.1944259638876,1 46039U 20055N   25355.72706308  .00000876  00000+0  77718-4 0  9991,2 46039  53.0546 116.6063 0001370  89.8243 270.2903 15.06388877297133
STARLINK-1582,46043,53.0552,0.000125,15.0639554,546.3595569512418,548.0908975080483,1 46043U 20055S   25355.60174044 -.00000143  00000+0  93123-5 0  9996,2 46043  53.0552 117.1685 0001250  85.2060 274.9072 15.06395540297116
STARLINK-1591,46045,53.0551,0.000132,15.0639867,546.3014876520074,548.1297807474357,1 46045U 20055U   25356.62274101  .00001594  00000+0  12590-3 0  9993,2 46045  53.0551 112.5848 0001320  86.6685 273.4455 15.06398670297254
STARLINK-1524,46047,53.0567,0.0001428,15.06396125,546.2344928106186,548.2123757506506,1 46047U 20055W   25356.04496795  .00001444  00000+0  11586-3 0  9994,2 46047  53.0567 105.1775 0001428  92.5834 267.5319 15.06396125297325
STARLINK-1527,46048,53.0541,0.0001466,15.06398579,546.2006563649784,548.2311698391004,1 46048U 20055X   25356.50570893  .00000527  00000+0  54247-4 0  9991,2 46048  53.0541 103.1113 0001466  77.2921 282.8232 15.06398579297375
STARLINK-1540,46051,53.0552,0.0001063,15.06397521,546.4829903673026,547.9553210860095,1 46051U 20055AA  25356.47253945  .00000880  00000+0  77970-4 0  9997,2 46051  53.0552 103.2600 0001063  85.6365 274.4746 15.06397521297408
STARLINK-1541,46052,53.056,0.0001119,15.06401279,546.4326919252699,547.9825840552521,1 46052U 20055AB  25356.45778922  .00002130  00000+0  16182-3 0  9990,2 46052  53.0560 103.3230 0001119  92.6040 267.5077 15.06401279297369
STARLINK-1543,46053,53.0565,0.0001323,15.06401459,546.2908632944027,548.1233093396413,1 46053U 20055AC  25356.59416971  .00000814  00000+0  73538-4 0  9995,2 46053  53.0565 102.7092 0001323  97.5970 262.5169 15.06401459297410
STARLINK-1548,46054,53.0556,0.000112,15.06400818,546.433412129526,547.9846896449235,1 46054U 20055AD  25356.60154232  .00000578  00000+0  57709-4 0  9996,2 46054  53.0556 102.6797 0001120  77.4819 282.6295 15.06400818297417
STARLINK-1554,46055,53.0549,0.0001479,15.06399415,546.1890915627073,548.2376101964974,1 46055U 20055AE  25356.52046000  .00001753  00000+0  13657-3 0  9990,2 46055  53.0549 103.0424 0001479  91.5885 268.5273 15.06399415297407
STARLINK-1564,46058,53.0566,0.0001285,15.06399281,546.3238539977374,548.1036691434601,1 46058U 20055AH  25356.46521961  .00000395  00000+0  45382-4 0  9992,2 46058  53.0566 103.7552 0001285  97.4772 262.6363 15.06399281297386
STARLINK-1570,46059,53.0547,0.000112,15.06397563,546.4433871273304,547.9946668773782,1 46059U 20055AJ  25356.49465234  .00000106  00000+0  26020-4 0  9994,2 46059  53.0547 103.1630 0001120  84.6308 275.4809 15.06397563297353
STARLINK-1572,46060,53.0549,0.0001264,15.06399198,546.3386515854427,548.0893803222762,1 46060U 20055AK  25355.69480681  .00001863  00000+0  14393-3 0  9990,2 46060  53.0549 106.7494 0001264  85.6066 274.5068 15.06399198297246
